CZ-2D R/B               
1 28738U 05024B   26204.32125205  .00070120  00000+0  49988-3 0  9993
2 28738  97.3473 225.6614 0003783 173.0250 187.1068 15.73603251161011
ALOS (DAICHI)           
1 28931U 06002A   26203.82420302  .00000841  00000+0  14823-3 0  9998
2 28931  98.1342 159.2860 0001015 110.4947 249.6367 14.70113169 93334
H-2A R/B                
1 28932U 06002B   26204.17012893  .00008552  00000+0  40385-3 0  9999
2 28932  98.2600   3.2752 0051197 139.1575 221.3511 15.18542301114982
RESURS-DK 1             
1 29228U 06021A   26204.19223332  .00001576  00000+0  94295-4 0  9992
2 29228  69.9299 246.3397 0007563 262.6323  97.3984 15.13340399108027
CZ-4B R/B               
1 29507U 06046C   26204.11446762  .00004325  00000+0  21296-3 0  9990
2 29507  97.5434 248.6114 0033332 155.0185 205.2671 15.18028853 80587
CZ-2C R/B               
1 31114U 07010B   26204.27042091  .00000077  00000+0  54595-4 0  9992
2 31114  98.4119 310.8610 0057767 259.7960  99.6700 14.20283420998961
COSMO-SKYMED 1          
1 31598U 07023A   26204.29195236  .00003096  00000+0  27253-3 0  9998
2 31598  97.8863  36.4546 0001934  93.2124 266.9319 14.97254378 35199
COSMOS 2428             
1 31792U 07029A   26203.61238498  .00000336  00000+0  20603-3 0  9999
2 31792  70.9381 280.0995 0007325  66.5360 293.6530 14.12939754983157
SL-16 R/B               
1 31793U 07029B   26204.16636236  .00000306  00000+0  18342-3 0  9997
2 31793  70.9740 247.5960 0001927 260.3060 161.0294 14.14856867984533
KORONAS-FOTON           
1 33504U 09003A   26204.25771573  .00013774  00000+0  27655-3 0  9997
2 33504  82.4304 134.6138 0011376  36.8830 323.3199 15.46453577966671
CZ-2C R/B               
1 37731U 11030B   26204.32857277  .00000794  00000+0  10592-3 0  9990
2 37731  97.8674 159.0692 0050648 268.9369 251.9547 14.81543495810176
H-2A R/B                
1 38341U 12025E   26204.21308543  .00002000  00000+0  18203-3 0  9997
2 38341  98.4854 182.3379 0042763 227.8142 131.9443 14.95858235768477
SHIJIAN-16 (SJ-16)      
1 39358U 13057A   26204.29913245  .00001090  00000+0  10834-3 0  9991
2 39358  74.9730 288.2850 0015436 145.1632 215.0570 14.92686342691735
SL-4 R/B                
1 39679U 14021B   26203.83084923  .00010673  00000+0  21760-3 0  9997
2 39679  51.6070  36.0660 0089279 236.6396 122.6021 15.42597012677118
ALOS-2                  
1 39766U 14029A   26204.25511654  .00001165  00000+0  16281-3 0  9993
2 39766  97.9224 300.9037 0001614  94.8947 265.2448 14.79473785656914
YAOGAN-29               
1 41038U 15069A   26204.34036465 -.00000102  00000+0 -59048-5 0  9997
2 41038  98.0026 233.0282 0000086 120.0370 240.0852 14.83109806575985
ASTRO-H (HITOMI)        
1 41337U 16012A   26204.24442598  .00002041  00000+0  11464-3 0  9995
2 41337  30.9974 201.2912 0009703 255.7612 104.1948 15.10656796572744
HXMT (HUIYAN)           
1 42758U 17034A   26203.78339625  .00005151  00000+0  25187-3 0  9994
2 42758  43.0151 344.7924 0031256   8.7119 351.4266 15.18737052503079
SAOCOM 1A               
1 43641U 18076A   26204.25421925 -.00000300  00000+0 -31142-4 0  9993
2 43641  97.8898  30.4792 0001452  87.7710 272.3669 14.82148829421443
H-2A R/B                
1 43682U 18084L   26204.18322577  .00021281  00000+0  42819-3 0  9993
2 43682  98.8521  90.9710 0020228 270.3716  89.5211 15.46437470426687
SAOCOM 1B               
1 46265U 20059A   26204.28542659  .00000701  00000+0  94570-4 0  9990
2 46265  97.8904  29.6066 0001533  86.6038 273.5351 14.82148296318838
CSS (TIANHE)            
1 48274U 21035A   26204.03437983  .00011304  00000+0  14912-3 0  9995
2 48274  41.4690 104.3124 0001739 306.7625  53.3054 15.58280026298764
COSMOS 2550             
1 48865U 21056A   26204.27966582  .00005695  00000+0  17846-3 0  9997
2 48865  67.1441 350.7269 0008564 269.2841  90.7332 15.33889469284254
CZ-2C R/B               
1 52794U 22058K   26203.65739686  .00044670  00000+0  45019-3 0  9999
2 52794  50.1859 338.6055 0029939  53.7112 306.6622 15.64318676231196
CZ-2C R/B               
1 54039U 22132E   26204.01509291  .00075279  00000+0  48684-3 0  9994
2 54039  97.2895 212.7544 0008404 302.2652  57.7799 15.75810705211584
GSLV R/B                
1 54149U 22138AN  26204.20613724  .00002094  00000+0  17684-3 0  9991
2 54149  87.3816 120.8893 0022532  25.2114 335.0212 14.97411179204206
XRISM                   
1 57800U 23137A   26204.15455041  .00004502  00000+0  24516-3 0  9996
2 57800  31.0018 126.5672 0007816 325.3983  34.6146 15.12714303158318
ACS3                    
1 59588U 24077B   26204.21323010  .00034656  00000+0  23572-1 0  9994
2 59588  97.1779 115.0326 0130614  27.5485 333.2526 13.95762580113062
SPACEMOBILE-003         
1 61045U 24163A   26204.03425621  .00002495  00000+0  12678-3 0  9995
2 61045  52.9686 144.5962 0003596 220.2566 139.8162 15.20673687103224
SPACEMOBILE-005         
1 61046U 24163B   26204.21492986  .00001507  00000+0  82557-4 0  9991
2 61046  52.9740 143.7232 0008301 219.1098 140.9297 15.20624425103243
SPACEMOBILE-001         
1 61047U 24163C   26204.21320313  .00000420  00000+0  33609-4 0  9993
2 61047  52.9699 143.4348 0006745 217.4420 142.6105 15.20678489103248
SPACEMOBILE-002         
1 61048U 24163D   26204.06618635  .00022234  00000+0  10167-2 0  9993
2 61048  52.9773 144.1623 0004783 212.6215 147.4484 15.20478362103224
SPACEMOBILE-004         
1 61049U 24163E   26204.11393918  .00021285  00000+0  96977-3 0  9993
2 61049  52.9731 143.7101 0005257 250.7696 109.2730 15.20626990103231
CZ-8A R/B               
1 66004U 25231K   26204.10740667 -.00000036  00000+0  45972-4 0  9994
2 66004  50.0027 246.4961 0116546 350.4753   9.3954 14.30163980 40081
SZ-21 MODULE            
1 66515U 25246C   26203.97462332  .00060021  00000+0  31977-3 0  9999
2 66515  41.4724  83.9224 0009494 269.0433  90.9325 15.79442093 39394
SPACEMOBILE-006         
1 67232U 25309A   26204.17388663  .00002949  00000+0  15556-3 0  9993
2 67232  52.9956 166.7813 0009463 242.7348 117.2682 15.18691485 32068
SPACEMOBILE-008         
1 69589U 26139A   26204.14673180  .00000626  00000+0  52210-4 0  9999
2 69589  52.9952  99.3063 0005391  74.0305 286.1279 15.12815414  5426
SPACEMOBILE-009         
1 69590U 26139B   26204.08317279  .00001287  00000+0  89615-4 0  9991
2 69590  52.9945  99.6160 0005604  71.6496 288.5104 15.12715669  5415
SPACEMOBILE-010         
1 69591U 26139C   26204.08713962  .00001314  00000+0  91551-4 0  9994
2 69591  52.9951  99.6437 0005617  64.2078 295.9492 15.12552732  5421

ISS (ZARYA)             
1 25544U 98067A   26204.18538858  .00009623  00000+0  18183-3 0  9993
2 25544  51.6313 121.9488 0006905 328.2241  31.8329 15.49110422577336
POISK                   
1 36086U 09060A   26204.18538858  .00009623  00000+0  18183-3 0  9991
2 36086  51.6313 121.9488 0006905 328.2241  31.8329 15.49110422576631
CSS (TIANHE)            
1 48274U 21035A   26204.03437983  .00011304  00000+0  14912-3 0  9995
2 48274  41.4690 104.3124 0001739 306.7625  53.3054 15.58280026298764
ISS (NAUKA)             
1 49044U 21066A   26204.18538858  .00009623  00000+0  18183-3 0  9999
2 49044  51.6313 121.9488 0006905 328.2241  31.8329 15.49110422576673
FREGAT DEB              
1 49271U 11037PF  26204.17032249  .00019134  00000+0  31982-1 0  9998
2 49271  51.6239 253.6907 0901560   0.9552 359.2792 12.42992527229525
CSS (WENTIAN)           
1 53239U 22085A   26204.03437983  .00011304  00000+0  14912-3 0  9998
2 53239  41.4690 104.3124 0001739 306.7625  53.3054 15.58280026288232
CSS (MENGTIAN)          
1 54216U 22143A   26204.03437983  .00011304  00000+0  14912-3 0  9999
2 54216  41.4690 104.3124 0001739 306.7625  53.3054 15.58280026298363
HRC MONOBLOCK CAMERA    
1 66052U 98067XR  26204.07395819  .00113879  00000+0  60677-3 0  9992
2 66052  51.6199  94.0744 0000682 164.7620 195.3402 15.79576891 43663
SZ-21 MODULE            
1 66515U 25246C   26203.97462332  .00060021  00000+0  31977-3 0  9999
2 66515  41.4724  83.9224 0009494 269.0433  90.9325 15.79442093 39394
SOYUZ-MS 28             
1 66664U 25275A   26204.18538858  .00009623  00000+0  18183-3 0  9992
2 66664  51.6313 121.9488 0006905 328.2241  31.8329 15.49110422576759
DUPLEX                  
1 66906U 98067XS  26203.96512448  .00050119  00000+0  50114-3 0  9998
2 66906  51.6259 108.4500 0002260 354.3683   5.7287 15.65075279 36259
KNACKSAT-2              
1 67683U 98067XZ  26204.25230709  .00054830  00000+0  59136-3 0  9998
2 67683  51.6273 112.6377 0007453 354.3723   5.7186 15.63087127 25913
CORAL                   
1 67684U 98067YA  26203.43070225  .00735526  25143-3  15613-2 0  9991
2 67684  51.6128 103.9810 0003594 254.4270 105.6343 15.98140527 25958
GXIBA-1                 
1 67685U 98067YB  26204.14600384  .00069984  00000+0  68754-3 0  9990
2 67685  51.6258 111.9142 0007885 349.8243  10.2591 15.65346445 25919
UITMSAT-2               
1 67686U 98067YC  26202.79133952  .00104874  00000+0  84688-3 0  9994
2 67686  51.6238 116.3579 0003455 334.3281  25.7545 15.70026060 25735
LEOPARD                 
1 67687U 98067YD  26204.12471884  .00085394  00000+0  86153-3 0  9997
2 67687  51.6278 112.5463 0004403 326.6623  33.4094 15.64619846 25826
HMU-SAT2                
1 67688U 98067YE  26203.46145236  .00087104  00000+0  77438-3 0  9990
2 67688  51.6256 114.1030 0003790 331.9601  28.1191 15.67764639 25748
CREW DRAGON 12          
1 67796U 26031A   26204.18538858  .00009623  00000+0  18183-3 0  9990
2 67796  51.6313 121.9488 0006905 328.2241  31.8329 15.49110422577038
PROGRESS-MS 33          
1 68319U 26058A   26204.18538858  .00009623  00000+0  18183-3 0  9991
2 68319  51.6313 121.9488 0006905 328.2241  31.8329 15.49110422576792
CYGNUS NG-24            
1 68689U 26079A   26204.18538858  .00009623  00000+0  18183-3 0  9994
2 68689  51.6313 121.9488 0006905 328.2241  31.8329 15.49110422577153
